{
  "type": "FeatureCollection",
  "features": [
    {
      "type": "Feature",
      "properties": {
        "norad_id": 35234,
        "name": "FENGYUN 1C DEB",
        "group": "fengyun-1c-debris",
        "lat": -79.94271219855312,
        "lon": 77.12696377489813,
        "alt_km": 631.1793690168615,
        "timestamp": "2025-12-22T05:49:03.787785+00:00",
        "meta_object_name": "FENGYUN 1C DEB",
        "meta_object_id": "1999-025DQS",
        "meta_epoch": "2025-12-16T07:38:43.883808",
        "meta_mean_motion": 14.65576253,
        "meta_eccentricity": 0.00998673,
        "meta_inclination": 98.0689,
        "meta_ra_of_asc_node": 18.1928,
        "meta_arg_of_pericenter": 251.0842,
        "meta_mean_anomaly": 107.9515,
        "meta_ephemeris_type": 0,
        "meta_classification_type": "U",
        "meta_norad_cat_id": 35234,
        "meta_element_set_no": 999,
        "meta_rev_at_epoch": 94408,
        "meta_bstar": 0.00038790099,
        "meta_mean_motion_dot": 2.212e-05,
        "meta_mean_motion_ddot": 0,
        "tle_line1": "1 35234U 99025DQS 25350.31856347  .00002212  00000+0  38790-3 0  9990",
        "tle_line2": "2 35234  98.0689  18.1928 0099867 251.0842 107.9515 14.65576253944086"
      },
      "geometry": {
        "type": "Point",
        "coordinates": [
          77.12696377489813,
          -79.94271219855312
        ]
      }
    },
    {
      "type": "Feature",
      "properties": {
        "norad_id": 35239,
        "name": "FENGYUN 1C DEB",
        "group": "fengyun-1c-debris",
        "lat": -66.83699509279643,
        "lon": -45.86441996646232,
        "alt_km": 1026.1761311134633,
        "timestamp": "2025-12-22T05:49:03.787797+00:00",
        "meta_object_name": "FENGYUN 1C DEB",
        "meta_object_id": "1999-025DQX",
        "meta_epoch": "2025-12-21T09:18:02.248992",
        "meta_mean_motion": 13.69235322,
        "meta_eccentricity": 0.02296218,
        "meta_inclination": 99.2659,
        "meta_ra_of_asc_node": 155.7432,
        "meta_arg_of_pericenter": 347.8122,
        "meta_mean_anomaly": 11.7527,
        "meta_ephemeris_type": 0,
        "meta_classification_type": "U",
        "meta_norad_cat_id": 35239,
        "meta_element_set_no": 999,
        "meta_rev_at_epoch": 58249,
        "meta_bstar": 0.00099483435,
        "meta_mean_motion_dot": 9.95e-06,
        "meta_mean_motion_ddot": 0,
        "tle_line1": "1 35239U 99025DQX 25355.38752603  .00000995  00000+0  99483-3 0  9999",
        "tle_line2": "2 35239  99.2659 155.7432 0229621 347.8122  11.7527 13.69235322582497"
      },
      "geometry": {
        "type": "Point",
        "coordinates": [
          -45.86441996646232,
          -66.83699509279643
        ]
      }
    },
    {
      "type": "Feature",
      "properties": {
        "norad_id": 35240,
        "name": "FENGYUN 1C DEB",
        "group": "fengyun-1c-debris",
        "lat": 48.29894246703029,
        "lon": 149.91531534087866,
        "alt_km": 776.324746161009,
        "timestamp": "2025-12-22T05:49:03.787810+00:00",
        "meta_object_name": "FENGYUN 1C DEB",
        "meta_object_id": "1999-025DQY",
        "meta_epoch": "2025-12-21T08:57:46.113696",
        "meta_mean_motion": 14.23361022,
        "meta_eccentricity": 0.00465427,
        "meta_inclination": 99.3508,
        "meta_ra_of_asc_node": 318.3357,
        "meta_arg_of_pericenter": 126.8493,
        "meta_mean_anomaly": 233.6965,
        "meta_ephemeris_type": 0,
        "meta_classification_type": "U",
        "meta_norad_cat_id": 35240,
        "meta_element_set_no": 999,
        "meta_rev_at_epoch": 93287,
        "meta_bstar": 0.0013571733,
        "meta_mean_motion_dot": 3.064e-05,
        "meta_mean_motion_ddot": 0,
        "tle_line1": "1 35240U 99025DQY 25355.37345039  .00003064  00000+0  13572-2 0  9995",
        "tle_line2": "2 35240  99.3508 318.3357 0046542 126.8493 233.6965 14.23361022932871"
      },
      "geometry": {
        "type": "Point",
        "coordinates": [
          149.91531534087866,
          48.29894246703029
        ]
      }
    },
    {
      "type": "Feature",
      "properties": {
        "norad_id": 35241,
        "name": "FENGYUN 1C DEB",
        "group": "fengyun-1c-debris",
        "lat": 60.50672918442425,
        "lon": -90.77809080804472,
        "alt_km": 929.5281228305421,
        "timestamp": "2025-12-22T05:49:03.787820+00:00",
        "meta_object_name": "FENGYUN 1C DEB",
        "meta_object_id": "1999-025DQZ",
        "meta_epoch": "2025-12-11T05:44:22.817472",
        "meta_mean_motion": 14.01929609,
        "meta_eccentricity": 0.0135502,
        "meta_inclination": 98.631,
        "meta_ra_of_asc_node": 274.3792,
        "meta_arg_of_pericenter": 212.8639,
        "meta_mean_anomaly": 146.4048,
        "meta_ephemeris_type": 0,
        "meta_classification_type": "U",
        "meta_norad_cat_id": 35241,
        "meta_element_set_no": 999,
        "meta_rev_at_epoch": 87585,
        "meta_bstar": 0.002553102,
        "meta_mean_motion_dot": 4.174e-05,
        "meta_mean_motion_ddot": 0,
        "tle_line1": "1 35241U 99025DQZ 25345.23915298  .00004174  00000+0  25531-2 0  9991",
        "tle_line2": "2 35241  98.6310 274.3792 0135502 212.8639 146.4048 14.01929609875856"
      },
      "geometry": {
        "type": "Point",
        "coordinates": [
          -90.77809080804472,
          60.50672918442425
        ]
      }
    },
    {
      "type": "Feature",
      "properties": {
        "norad_id": 35242,
        "name": "FENGYUN 1C DEB",
        "group": "fengyun-1c-debris",
        "lat": -77.98971663950256,
        "lon": 173.08117949261742,
        "alt_km": 1095.1721561485674,
        "timestamp": "2025-12-22T05:49:03.787830+00:00",
        "meta_object_name": "FENGYUN 1C DEB",
        "meta_object_id": "1999-025DRA",
        "meta_epoch": "2025-12-09T15:26:53.963232",
        "meta_mean_motion": 13.52332883,
        "meta_eccentricity": 0.0301834,
        "meta_inclination": 99.9692,
        "meta_ra_of_asc_node": 36.171,
        "meta_arg_of_pericenter": 196.4444,
        "meta_mean_anomaly": 317.6855,
        "meta_ephemeris_type": 0,
        "meta_classification_type": "U",
        "meta_norad_cat_id": 35242,
        "meta_element_set_no": 999,
        "meta_rev_at_epoch": 58085,
        "meta_bstar": 0.0024719,
        "meta_mean_motion_dot": 2.128e-05,
        "meta_mean_motion_ddot": 0,
        "tle_line1": "1 35242U 99025DRA 25343.64368013  .00002128  00000+0  24719-2 0  9996",
        "tle_line2": "2 35242  99.9692  36.1710 0301834 196.4444 317.6855 13.52332883580850"
      },
      "geometry": {
        "type": "Point",
        "coordinates": [
          173.08117949261742,
          -77.98971663950256
        ]
      }
    },
    {
      "type": "Feature",
      "properties": {
        "norad_id": 35243,
        "name": "FENGYUN 1C DEB",
        "group": "fengyun-1c-debris",
        "lat": -53.783991729247276,
        "lon": -116.09373067916417,
        "alt_km": 567.9940312472991,
        "timestamp": "2025-12-22T05:49:03.787843+00:00",
        "meta_object_name": "FENGYUN 1C DEB",
        "meta_object_id": "1999-025DRB",
        "meta_epoch": "2025-12-20T04:19:23.221632",
        "meta_mean_motion": 14.87223891,
        "meta_eccentricity": 0.00657139,
        "meta_inclination": 98.8807,
        "meta_ra_of_asc_node": 73.9296,
        "meta_arg_of_pericenter": 233.2417,
        "meta_mean_anomaly": 126.2752,
        "meta_ephemeris_type": 0,
        "meta_classification_type": "U",
        "meta_norad_cat_id": 35243,
        "meta_element_set_no": 999,
        "meta_rev_at_epoch": 91111,
        "meta_bstar": 0.0013889314,
        "meta_mean_motion_dot": 0.0001296,
        "meta_mean_motion_ddot": 0,
        "tle_line1": "1 35243U 99025DRB 25354.18012988  .00012960  00000+0  13889-2 0  9996",
        "tle_line2": "2 35243  98.8807  73.9296 0065713 233.2417 126.2752 14.87223891911112"
      },
      "geometry": {
        "type": "Point",
        "coordinates": [
          -116.09373067916417,
          -53.783991729247276
        ]
      }
    },
    {
      "type": "Feature",
      "properties": {
        "norad_id": 35244,
        "name": "FENGYUN 1C DEB",
        "group": "fengyun-1c-debris",
        "lat": -12.928064059103471,
        "lon": 38.291269951402846,
        "alt_km": 917.4561085041787,
        "timestamp": "2025-12-22T05:49:03.787853+00:00",
        "meta_object_name": "FENGYUN 1C DEB",
        "meta_object_id": "1999-025DRC",
        "meta_epoch": "2025-12-21T09:23:41.022528",
        "meta_mean_motion": 14.06644711,
        "meta_eccentricity": 0.0072073,
        "meta_inclination": 98.8404,
        "meta_ra_of_asc_node": 35.4126,
        "meta_arg_of_pericenter": 133.4643,
        "meta_mean_anomaly": 227.255,
        "meta_ephemeris_type": 0,
        "meta_classification_type": "U",
        "meta_norad_cat_id": 35244,
        "meta_element_set_no": 999,
        "meta_rev_at_epoch": 65943,
        "meta_bstar": 0.00051773213,
        "meta_mean_motion_dot": 8.37e-06,
        "meta_mean_motion_ddot": 0,
        "tle_line1": "1 35244U 99025DRC 25355.39144702  .00000837  00000+0  51773-3 0  9996",
        "tle_line2": "2 35244  98.8404  35.4126 0072073 133.4643 227.2550 14.06644711659431"
      },
      "geometry": {
        "type": "Point",
        "coordinates": [
          38.291269951402846,
          -12.928064059103471
        ]
      }
    }
  ]
}